{"type": "FeatureCollection", "features": [ {"type": "Feature", "properties": {"norad_id": 42987, "name": "SKYSAT-C11", "group": "resource", "lat": 33.52770245797789, "lon": 132.01674563870512, "alt_km": 420.28485759726937, "timestamp": "2025-12-25T03:55:55.963839+00:00", "meta": {"OBJECT_NAME": "SKYSAT-C11", "OBJECT_ID": "2017-068A", "EPOCH": "2025-12-24T20:01:45.463872", "MEAN_MOTION": 15.4796179, "ECCENTRICITY": 0.0001124, "INCLINATION": 97.4153, "RA_OF_ASC_NODE": 136.6296, "ARG_OF_PERICENTER": 96.2754, "MEAN_ANOMALY": 263.8624, "EPHEMERIS_TYPE": 0, "CLASSIFICATION_TYPE": "U", "NORAD_CAT_ID": 42987, "ELEMENT_SET_NO": 999, "REV_AT_EPOCH": 45618, "BSTAR": 0.00044441, "MEAN_MOTION_DOT": 0.00023136, "MEAN_MOTION_DDOT": 0}, "tle": {"line1": "1 42987U 17068A   25358.83455398  .00023136  00000+0  44441-3 0  9994", "line2": "2 42987  97.4153 136.6296 0001124  96.2754 263.8624 15.47961790456189"}}, "geometry": {"type": "Point", "coordinates": [132.01674563870512, 33.52770245797789]}}, {"type": "Feature", "properties": {"norad_id": 42988, "name": "SKYSAT-C10", "group": "resource", "lat": 38.95479769410383, "lon": -43.89520128959868, "alt_km": 465.5725655675851, "timestamp": "2025-12-25T03:55:55.963849+00:00", "meta": {"OBJECT_NAME": "SKYSAT-C10", "OBJECT_ID": "2017-068B", "EPOCH": "2025-12-24T19:29:00.783168", "MEAN_MOTION": 15.32071049, "ECCENTRICITY": 0.000431, "INCLINATION": 97.4272, "RA_OF_ASC_NODE": 129.6977, "ARG_OF_PERICENTER": 75.127, "MEAN_ANOMALY": 285.0448, "EPHEMERIS_TYPE": 0, "CLASSIFICATION_TYPE": "U", "NORAD_CAT_ID": 42988, "ELEMENT_SET_NO": 999, "REV_AT_EPOCH": 45564, "BSTAR": 0.00040465, "MEAN_MOTION_DOT": 0.00012461, "MEAN_MOTION_DDOT": 0}, "tle": {"line1": "1 42988U 17068B   25358.81181462  .00012461  00000+0  40465-3 0  9992", "line2": "2 42988  97.4272 129.6977 0004310  75.1270 285.0448 15.32071049455642"}}, "geometry": {"type": "Point", "coordinates": [-43.89520128959868, 38.95479769410383]}}, {"type": "Feature", "properties": {"norad_id": 42989, "name": "SKYSAT-C9", "group": "resource", "lat": 11.316003779496256, "lon": -48.987540788759915, "alt_km": 462.00749697399624, "timestamp": "2025-12-25T03:55:55.963859+00:00", "meta": {"OBJECT_NAME": "SKYSAT-C9", "OBJECT_ID": "2017-068C", "EPOCH": "2025-12-24T19:23:10.704192", "MEAN_MOTION": 15.36348442, "ECCENTRICITY": 0.0010278, "INCLINATION": 97.4197, "RA_OF_ASC_NODE": 129.1591, "ARG_OF_PERICENTER": 48.8964, "MEAN_ANOMALY": 311.3165, "EPHEMERIS_TYPE": 0, "CLASSIFICATION_TYPE": "U", "NORAD_CAT_ID": 42989, "ELEMENT_SET_NO": 999, "REV_AT_EPOCH": 45593, "BSTAR": 0.00039264, "MEAN_MOTION_DOT": 0.00013867, "MEAN_MOTION_DDOT": 0}, "tle": {"line1": "1 42989U 17068C   25358.80776278  .00013867  00000+0  39264-3 0  9993", "line2": "2 42989  97.4197 129.1591 0010278  48.8964 311.3165 15.36348442455932"}}, "geometry": {"type": "Point", "coordinates": [-48.987540788759915, 11.316003779496256]}}, {"type": "Feature", "properties": {"norad_id": 42990, "name": "SKYSAT-C8", "group": "resource", "lat": -1.5578100946000353, "lon": 129.42377216428795, "alt_km": 469.58923024269006, "timestamp": "2025-12-25T03:55:55.963870+00:00", "meta": {"OBJECT_NAME": "SKYSAT-C8", "OBJECT_ID": "2017-068D", "EPOCH": "2025-12-24T20:06:25.740288", "MEAN_MOTION": 15.33182235, "ECCENTRICITY": 9.45e-05, "INCLINATION": 97.4288, "RA_OF_ASC_NODE": 128.8929, "ARG_OF_PERICENTER": 271.5017, "MEAN_ANOMALY": 88.6117, "EPHEMERIS_TYPE": 0, "CLASSIFICATION_TYPE": "U", "NORAD_CAT_ID": 42990, "ELEMENT_SET_NO": 999, "REV_AT_EPOCH": 45556, "BSTAR": 0.00038956, "MEAN_MOTION_DOT": 0.00012417, "MEAN_MOTION_DDOT": 0}, "tle": {"line1": "1 42990U 17068D   25358.83779792  .00012417  00000+0  38956-3 0  9999", "line2": "2 42990  97.4288 128.8929 0000945 271.5017  88.6117 15.33182235455563"}}, "geometry": {"type": "Point", "coordinates": [129.42377216428795, -1.5578100946000353]}}, {"type": "Feature", "properties": {"norad_id": 42991, "name": "SKYSAT-C7", "group": "resource", "lat": -7.269512359532722, "lon": -50.702611893740105, "alt_km": 476.7630279101295, "timestamp": "2025-12-25T03:55:55.963880+00:00", "meta": {"OBJECT_NAME": "SKYSAT-C7", "OBJECT_ID": "2017-068E", "EPOCH": "2025-12-24T06:44:49.252704", "MEAN_MOTION": 15.32564096, "ECCENTRICITY": 0.00069152, "INCLINATION": 97.4294, "RA_OF_ASC_NODE": 129.3651, "ARG_OF_PERICENTER": 20.8322, "MEAN_ANOMALY": 339.32, "EPHEMERIS_TYPE": 0, "CLASSIFICATION_TYPE": "U", "NORAD_CAT_ID": 42991, "ELEMENT_SET_NO": 999, "REV_AT_EPOCH": 45554, "BSTAR": 0.00037715661, "MEAN_MOTION_DOT": 0.00011794, "MEAN_MOTION_DDOT": 0}, "tle": {"line1": "1 42991U 17068E   25358.28112561  .00011794  00000+0  37716-3 0  9994", "line2": "2 42991  97.4294 129.3651 0006915  20.8322 339.3200 15.32564096455541"}}, "geometry": {"type": "Point", "coordinates": [-50.702611893740105, -7.269512359532722]}}, {"type": "Feature", "properties": {"norad_id": 42992, "name": "SKYSAT-C6", "group": "resource", "lat": -81.79620460240244, "lon": -114.21957152383641, "alt_km": 480.57064348725544, "timestamp": "2025-12-25T03:55:55.963890+00:00", "meta": {"OBJECT_NAME": "SKYSAT-C6", "OBJECT_ID": "2017-068F", "EPOCH": "2025-12-24T06:23:23.138592", "MEAN_MOTION": 15.31718973, "ECCENTRICITY": 0.0004812, "INCLINATION": 97.433, "RA_OF_ASC_NODE": 129.7795, "ARG_OF_PERICENTER": 51.2572, "MEAN_ANOMALY": 308.9099, "EPHEMERIS_TYPE": 0, "CLASSIFICATION_TYPE": "U", "NORAD_CAT_ID": 42992, "ELEMENT_SET_NO": 999, "REV_AT_EPOCH": 45552, "BSTAR": 0.00038376957, "MEAN_MOTION_DOT": 0.00011685, "MEAN_MOTION_DDOT": 0}, "tle": {"line1": "1 42992U 17068F   25358.26624003  .00011685  00000+0  38377-3 0  9995", "line2": "2 42992  97.4330 129.7795 0004812  51.2572 308.9099 15.31718973455525"}}, "geometry": {"type": "Point", "coordinates": [-114.21957152383641, -81.79620460240244]}}, {"type": "Feature", "properties": {"norad_id": 43111, "name": "CARTOSAT-2F", "group": "resource", "lat": -1.0865696254630266, "lon": -123.54263863313561, "alt_km": 511.04575923568245, "timestamp": "2025-12-25T03:55:55.963901+00:00", "meta": {"OBJECT_NAME": "CARTOSAT-2F", "OBJECT_ID": "2018-004A", "EPOCH": "2025-12-24T20:48:54.966240", "MEAN_MOTION": 15.19235578, "ECCENTRICITY": 0.0001617, "INCLINATION": 97.4297, "RA_OF_ASC_NODE": 56.3075, "ARG_OF_PERICENTER": 109.0418, "MEAN_ANOMALY": 251.0992, "EPHEMERIS_TYPE": 0, "CLASSIFICATION_TYPE": "U", "NORAD_CAT_ID": 43111, "ELEMENT_SET_NO": 999, "REV_AT_EPOCH": 44086, "BSTAR": 0.00017485, "MEAN_MOTION_DOT": 3.616e-05, "MEAN_MOTION_DDOT": 0}, "tle": {"line1": "1 43111U 18004A   25358.86730285  .00003616  00000+0  17485-3 0  9998", "line2": "2 43111  97.4297  56.3075 0001617 109.0418 251.0992 15.19235578440860"}}, "geometry": {"type": "Point", "coordinates": [-123.54263863313561, -1.0865696254630266]}}, {"type": "Feature", "properties": {"norad_id": 43259, "name": "GAOFEN-1 02", "group": "resource", "lat": -15.407188832801605, "lon": -125.28680457339857, "alt_km": 643.7038522343055, "timestamp": "2025-12-25T03:55:55.963911+00:00", "meta": {"OBJECT_NAME": "GAOFEN-1 02", "OBJECT_ID": "2018-031A", "EPOCH": "2025-12-24T20:32:37.407264", "MEAN_MOTION": 14.76438669, "ECCENTRICITY": 0.0002585, "INCLINATION": 98.0787, "RA_OF_ASC_NODE": 56.6486, "ARG_OF_PERICENTER": 172.6219, "MEAN_ANOMALY": 187.5029, "EPHEMERIS_TYPE": 0, "CLASSIFICATION_TYPE": "U", "NORAD_CAT_ID": 43259, "ELEMENT_SET_NO": 999, "REV_AT_EPOCH": 41697, "BSTAR": 0.00014436, "MEAN_MOTION_DOT": 9.52e-06, "MEAN_MOTION_DDOT": 0}, "tle": {"line1": "1 43259U 18031A   25358.85598851  .00000952  00000+0  14436-3 0  9994", "line2": "2 43259  98.0787  56.6486 0002585 172.6219 187.5029 14.76438669416970"}}, "geometry": {"type": "Point", "coordinates": [-125.28680457339857, -15.407188832801605]}}, {"type": "Feature", "properties": {"norad_id": 43260, "name": "GAOFEN-1 03", "group": "resource", "lat": -47.8546029927994, "lon": 65.86160293300017, "alt_km": 646.6748890433446, "timestamp": "2025-12-25T03:55:55.963922+00:00", "meta": {"OBJECT_NAME": "GAOFEN-1 03", "OBJECT_ID": "2018-031B", "EPOCH": "2025-12-24T20:01:08.380992", "MEAN_MOTION": 14.76460503, "ECCENTRICITY": 0.0001723, "INCLINATION": 98.0782, "RA_OF_ASC_NODE": 56.5028, "ARG_OF_PERICENTER": 256.8726, "MEAN_ANOMALY": 103.2291, "EPHEMERIS_TYPE": 0, "CLASSIFICATION_TYPE": "U", "NORAD_CAT_ID": 43260, "ELEMENT_SET_NO": 999, "REV_AT_EPOCH": 41696, "BSTAR": 0.00013554, "MEAN_MOTION_DOT": 8.91e-06, "MEAN_MOTION_DDOT": 0}, "tle": {"line1": "1 43260U 18031B   25358.83412478  .00000891  00000+0  13554-3 0  9996", "line2": "2 43260  98.0782  56.5028 0001723 256.8726 103.2291 14.76460503416966"}}, "geometry": {"type": "Point", "coordinates": [65.86160293300017, -47.8546029927994]}}, {"type": "Feature", "properties": {"norad_id": 43262, "name": "GAOFEN-1 04", "group": "resource", "lat": 77.59134714608786, "lon": 16.79481675035702, "alt_km": 632.9645474875833, "timestamp": "2025-12-25T03:55:55.963932+00:00", "meta": {"OBJECT_NAME": "GAOFEN-1 04", "OBJECT_ID": "2018-031D", "EPOCH": "2025-12-24T21:03:45.586080", "MEAN_MOTION": 14.76431165, "ECCENTRICITY": 5.47e-05, "INCLINATION": 98.0788, "RA_OF_ASC_NODE": 56.7166, "ARG_OF_PERICENTER": 61.715, "MEAN_ANOMALY": 298.4115, "EPHEMERIS_TYPE": 0, "CLASSIFICATION_TYPE": "U", "NORAD_CAT_ID": 43262, "ELEMENT_SET_NO": 999, "REV_AT_EPOCH": 41696, "BSTAR": 0.00019465, "MEAN_MOTION_DOT": 1.302e-05, "MEAN_MOTION_DDOT": 0}, "tle": {"line1": "1 43262U 18031D   25358.87761095  .00001302  00000+0  19465-3 0  9999", "line2": "2 43262  98.0788  56.7166 0000547  61.7150 298.4115 14.76431165416960"}}, "geometry": {"type": "Point", "coordinates": [16.79481675035702, 77.59134714608786]}}]}